[{"OBJECT_NAME":"STARLINK-1815","OBJECT_ID":"2020-073AV","EPOCH":"2026-03-10T00:00:02.999808","MEAN_MOTION":15.68490192,"ECCENTRICITY":0.00037944,"INCLINATION":53.0443,"RA_OF_ASC_NODE":200.7345,"ARG_OF_PERICENTER":346.009,"MEAN_ANOMALY":244.5885,"EPHEMERIS_TYPE":0,"CLASSIFICATION_TYPE":"U","NORAD_CAT_ID":46713,"ELEMENT_SET_NO":999,"REV_AT_EPOCH":553,"BSTAR":9.8093788e-5,"MEAN_MOTION_DOT":0.00010738,"MEAN_MOTION_DDOT":0},{"OBJECT_NAME":"STARLINK-11383 [DTC]","OBJECT_ID":"2024-204K","EPOCH":"2026-03-09T02:17:55.106880","MEAN_MOTION":15.69695686,"ECCENTRICITY":0.00013179,"INCLINATION":53.1598,"RA_OF_ASC_NODE":359.0163,"ARG_OF_PERICENTER":104.8026,"MEAN_ANOMALY":255.3138,"EPHEMERIS_TYPE":0,"CLASSIFICATION_TYPE":"U","NORAD_CAT_ID":61883,"ELEMENT_SET_NO":999,"REV_AT_EPOCH":7682,"BSTAR":2.156602e-6,"MEAN_MOTION_DOT":-3.28e-6,"MEAN_MOTION_DDOT":0}]
